ONEWEB-0300             
1 49089U 21075Q   24155.71537227  .00000373  00000+0  10022-2 0  9995
2 49089  87.8926 138.6975 0002156  97.1804 262.9569 13.12444402137683
ONEWEB-0301             
1 49090U 21075R   24155.92804680  .00000311  00000+0  82928-3 0  9997
2 49090  87.8926 138.6584 0002110  94.8752 265.2617 13.12475663137073
ONEWEB-0302             
1 49091U 21075S   24155.53402350 -.00000053  00000+0 -18379-3 0  9997
2 49091  87.8927 138.7350 0002006  79.0650 281.0704 13.12499806137004
ONEWEB-0304             
1 49092U 21075T   24155.75365590  .00000091  00000+0  20193-3 0  9993
2 49092  87.9161 153.8515 0001844  79.8424 280.2915 13.17651425135671
ONEWEB-0305             
1 49093U 21075U   24155.74574966  .00000097  00000+0  21670-3 0  9999
2 49093  87.9159 153.8403 0001529  82.5097 277.6208 13.17651304135707
ONEWEB-0308             
1 49094U 21075V   24155.90877880 -.00000311  00000+0 -89885-3 0  9992
2 49094  87.8924 138.6599 0002102  88.6349 271.5021 13.12512205137067
ONEWEB-0309             
1 49095U 21075W   24155.75049969  .00000057  00000+0  11379-3 0  9993
2 49095  87.9163 153.8435 0002242  73.1884 286.9493 13.17650746135676
ONEWEB-0310             
1 49096U 21075X   24155.92322802  .00000081  00000+0  18882-3 0  9996
2 49096  87.8935 138.6635 0002113  82.2175 277.9193 13.12485262137692
